# From MPC 92276
16P/Brooks,e,3.0069,138.9397,245.1387,3.660561,0.1407287,0.48772614,300.0725,02/17.0/2020,2000,g  7.5,10.0
# From MPC114607
17P/Holmes,e,19.0230,326.6512,24.5560,3.636079,0.1421524,0.42823913,307.5400,02/17.0/2020,2000,g 10.0,6.0
# From MPC 92984
19P/Borrelly,e,29.6009,74.5665,351.8004,3.601162,0.1442248,0.63960437,256.8812,02/17.0/2020,2000,g  4.5,10.0
# From MPC111773
21P/Giacobini-Zinner,e,32.0051,195.3740,172.8486,3.496405,0.1507549,0.71052883,79.0990,02/17.0/2020,2000,g  9.0,6.0
# From MPC 94283
22P/Kopff,e,4.7416,120.8361,162.9434,3.443518,0.1542412,0.54883312,242.7835,02/17.0/2020,2000,g  3.0,10.4
# From MPC 14747
23P/Brorsen-Metcalf,e,19.1565,312.3266,128.9156,16.95700,0.0141150,0.97092956,0.0000,08/16.5957/1989,2000,g 10.0,6.0
# From MPC110085
24P/Schaumasse,e,11.7199,79.5500,57.7220,4.067338,0.1201541,0.70741399,98.6733,02/17.0/2020,2000,g  6.5,14.0
# From MPC 94674
26P/Grigg-Skjellerup,e,22.4471,211.5356,2.1937,3.013762,0.1883825,0.64076611,94.8058,02/17.0/2020,2000,g 12.0,16.0
# From MPC 78188
27P/Crommelin,e,29.1153,250.5747,196.0118,9.192522,0.0353632,0.91792050,110.6414,02/17.0/2020,2000,g 12.0,8.0
# From MPC114607
28P/Neujmin,e,14.3114,346.3457,347.4373,6.968979,0.0535735,0.77358536,339.1614,02/17.0/2020,2000,g  8.5,6.0
# From MPEC 2019-VB6
29P/Schwassmann-Wachmann,e,9.3671,312.3814,48.0536,6.030983,0.0665460,0.04376820,22.7936,02/17.0/2020,2000,g  4.0,4.0
# From MPC110085
30P/Reinmuth,e,8.3367,119.0122,13.0303,3.742464,0.1361343,0.51324837,123.3343,02/17.0/2020,2000,g  9.5,6.0
# From MPC108597
31P/Schwassmann-Wachmann,e,4.5473,114.1130,18.3167,4.242544,0.1127884,0.19263141,25.5000,02/17.0/2020,2000,g  5.0,8.0
# From MPC 92276
32P/Comas Sola,e,9.9403,57.6255,53.3272,4.498219,0.1033102,0.55698384,201.4488,02/17.0/2020,2000,g  6.5,8.0
# From MPEC 2013-O31
33P/Daniel,e,22.3524,66.3688,20.6442,4.080445,0.1195757,0.45337549,153.0536,02/17.0/2020,2000,g 10.0,12.0
# From  15, 452
35P/Herschel-Rigollet,e,64.545,356.273,29.121,28.5696,0.006454,0.9733651,0.000,12/25.1518/2091,2000,g  9.0,4.0
# From MPC105240
36P/Whipple,e,9.9529,181.8638,200.7640,4.129841,0.1174368,0.26834029,347.7154,02/17.0/2020,2000,g  8.5,6.0
# From MPEC 2018-HA5
37P/Forbes,e,8.9566,314.5686,330.0598,3.458716,0.1532258,0.53416539,100.1745,02/17.0/2020,2000,g 10.5,4.8
# From MPEC 2018-S50
38P/Stephan-Oterma,e,18.3535,77.9970,359.5588,11.26549,0.0260663,0.85902262,12.0707,02/17.0/2020,2000,g  3.5,12.0
# From MPC115887
39P/Oterma,e,1.5612,299.2556,94.8422,7.410629,0.0488564,0.22363448,302.3778,02/17.0/2020,2000,g  7.0,6.0
# From MPC100283
40P/Vaisala,e,11.4715,133.7906,47.4633,4.949909,0.0894969,0.63022484,171.9285,02/17.0/2020,2000,g  5.5,12.0
# From MPC105240
41P/Tuttle-Giacobini-Kresak,e,9.2217,141.0063,62.2582,3.085717,0.1818318,0.66046563,189.2213,02/17.0/2020,2000,g 10.0,16.0
# From MPC 94283
42P/Neujmin,e,3.9882,150.2018,147.1469,4.873065,0.0916222,0.58538234,162.5112,02/17.0/2020,2000,g 13.0,6.0
# From MPC102956
43P/Wolf-Harrington,e,9.4589,244.6637,223.8824,4.299974,0.1105364,0.44179769,139.4136,02/17.0/2020,2000,g  8.0,6.0
# From MPC 89313
44P/Reinmuth,e,5.8982,286.4819,58.1240,3.688975,0.1391059,0.42694721,249.1688,02/17.0/2020,2000,g  8.3,6.0
# From MPC103849
45P/Honda-Mrkos-Pajdusakova,e,4.3260,87.6955,327.9811,3.049345,0.1850948,0.81782812,212.1616,02/17.0/2020,2000,g 13.5,8.0
# From MPC114607
46P/Wirtanen,e,11.7448,82.1537,356.3681,3.091914,0.1812855,0.65849640,78.1571,02/17.0/2020,2000,g 14.0,6.0
# From NK 2718
47P/Ashbrook-Jackson,e,13.0321,356.9344,357.6058,4.125701,0.1176136,0.31770061,115.4693,02/17.0/2020,2000,g  9.0,4.0
# From MPEC 2015-M77
48P/Johnson,e,12.2078,110.1271,216.6063,3.500126,0.1505146,0.42726446,83.3315,02/17.0/2020,2000,g  9.0,4.0
# From MPEC 2015-M77
49P/Arend-Rigaux,e,19.0450,118.8013,332.9608,3.569686,0.1461366,0.59893125,85.0061,02/17.0/2020,2000,g  9.0,4.0
# From MPEC 2015-S97
50P/Arend,e,19.0962,355.1537,49.3648,4.089676,0.1191711,0.52847483,175.4237,02/17.0/2020,2000,g  9.5,6.0
# From NK 3013
51P-A/Harrington,e,5.4254,83.6765,269.2331,3.708704,0.1379974,0.54279400,227.7697,02/17.0/2020,2000,g 16.0,8.0
# From NK 3014
51P-A/Harrington,e,5.4247,83.6921,269.1938,3.709728,0.1379402,0.54286581,227.5234,02/17.0/2020,2000,g 10.0,8.0
# From NK 3014
51P-A/Harrington,e,5.4247,83.6921,269.1938,3.709710,0.1379413,0.54286273,227.5265,02/17.0/2020,2000,g 10.0,8.0
# From MPEC 2015-L08
51P-D/Harrington,e,5.4262,83.6820,269.1832,3.708794,0.1379924,0.54280813,227.7657,02/17.0/2020,2000,g 16.0,8.0
# From MPEC 2015-L08
51P-D/Harrington,e,5.4262,83.6810,269.1840,3.708782,0.1379930,0.54280872,227.7707,02/17.0/2020,2000,g 16.0,8.0
# From NK 3013
51P-D/Harrington,e,5.4254,83.6769,269.2328,3.708703,0.1379974,0.54279418,227.7698,02/17.0/2020,2000,g 16.0,8.0
# From NK 3013
51P-D/Harrington,e,5.4254,83.6769,269.2328,3.708703,0.1379974,0.54279432,227.7698,02/17.0/2020,2000,g 16.0,8.0
# From MPC 88330
52P/Harrington-Abell,e,10.2311,336.8378,139.6021,3.861954,0.1298654,0.53964957,282.5544,02/17.0/2020,2000,g 13.5,6.0
# From MPC100283
53P/Van Biesbroeck,e,6.6076,148.8478,134.3688,5.423620,0.0780316,0.55232459,108.2454,02/17.0/2020,2000,g  7.7,4.8
# From MPC 89011
54P/de Vico-Swift-NEAT,e,6.0602,358.8176,1.7684,3.793754,0.1333829,0.42520224,138.3675,02/17.0/2020,2000,g  9.0,4.0
# From MPC 31070
55P/Tempel-Tuttle,e,162.3659,235.4043,172.5528,10.34642,0.0296155,0.90680746,238.3313,02/17.0/2020,2000,g  9.0,4.0
# From MPC101100
56P/Slaughter-Burnham,e,8.1558,345.9773,44.0459,5.073137,0.0862560,0.50658294,112.8957,02/17.0/2020,2000,g  8.5,6.0
# From MPC 98565
57P/du Toit-Neujmin-Delporte,e,2.8499,188.7813,115.2001,3.447570,0.1539694,0.50066353,266.3189,02/17.0/2020,2000,g 12.5,6.0
# From NK 778
58P/Jackson-Neujmin,e,13.1011,159.0652,200.4618,4.082750,0.1194744,0.66259442,348.2857,02/17.0/2020,2000,g  9.0,4.0
# From MPC111774
59P/Kearns-Kwee,e,9.3411,312.8298,127.6459,4.490680,0.1035705,0.47488799,53.6915,02/17.0/2020,2000,g  7.0,6.0
# From MPEC 2015-M77
60P/Tsuchinshan,e,3.6064,267.5830,216.6596,3.513523,0.1496545,0.53760315,64.7530,02/17.0/2020,2000,g  9.0,4.0
# From MPEC 2015-Q71
61P/Shajn-Schaldach,e,5.9990,162.9904,221.9184,3.684344,0.1393682,0.42380990,223.3009,02/17.0/2020,2000,g  6.0,10.0
# From MPC109147
62P/Tsuchinshan,e,9.3949,89.7099,29.7619,3.391926,0.1577737,0.62710883,126.4661,02/17.0/2020,2000,g  8.0,10.0
# From MPC 84320
63P/Wild,e,19.7434,358.0146,169.1631,5.603951,0.0742955,0.64924558,186.2091,02/17.0/2020,2000,g 10.5,6.0
# From MPC111774
64P/Swift-Gehrels,e,8.9501,299.9992,97.1162,4.455922,0.1047846,0.68750581,49.2600,02/17.0/2020,2000,g  9.5,12.0
# From MPC104795
65P/Gunn,e,9.1838,62.0234,213.7499,3.883389,0.1287917,0.24996304,109.7757,02/17.0/2020,2000,g  5.0,6.0
# From MPC109147
66P/du Toit,e,18.6652,21.8820,257.2730,6.060832,0.0660550,0.78697866,42.1955,02/17.0/2020,2000,g  9.0,4.0
# From MPC 89011
67P/Churyumov-Gerasimenko,e,3.9033,37.1252,21.6304,3.451358,0.1537160,0.65335177,264.3064,02/17.0/2020,2000,g 11.0,4.0
# From MPC 75716
68P/Klemola,e,11.1109,175.0822,153.0617,4.948295,0.0895407,0.63747695,8.9502,02/17.0/2020,2000,g 10.0,4.0
# From MPC114607
69P/Taylor,e,22.0330,104.8305,343.5355,3.890350,0.1284461,0.41311213,43.1126,02/17.0/2020,2000,g  9.5,12.0
# From MPC 92276
70P/Kojima,e,6.5982,119.2680,1.8676,3.675024,0.1398987,0.45330408,272.5174,02/17.0/2020,2000,g 11.0,6.0
# From MPC107051
71P/Clark,e,9.4423,59.4411,209.0010,3.138093,0.1772986,0.49424088,170.4739,02/17.0/2020,2000,g  9.8,6.0
# From MPC 89011
72P/Denning-Fujikawa,e,10.9267,26.6912,346.6672,4.311903,0.1100780,0.81789302,226.1945,02/17.0/2020,2000,g 17.5,10.0
# From MPC106348
73P/Schwassmann-Wachmann,e,11.2355,69.6535,199.4308,3.093139,0.1811778,0.68573087,193.2637,02/17.0/2020,2000,g 11.5,6.0
# From MPC106348
73P-T/Schwassmann-Wachmann,e,11.2376,69.6560,199.4123,3.094698,0.1810409,0.68593409,193.1186,02/17.0/2020,2000,g 11.5,6.0
# From MPC102956
74P/Smirnova-Chernykh,e,6.6366,77.0412,89.6056,4.191147,0.1148695,0.15296179,84.4428,02/17.0/2020,2000,g  5.0,6.0
# From MPC118097
76P/West-Kohoutek-Ikemura,e,30.4567,84.1247,0.0194,3.474996,0.1521502,0.53819139,17.3239,02/17.0/2020,2000,g  8.0,12.0
# From MPC100283
77P/Longmore,e,24.3288,14.8036,196.8675,3.619957,0.1431031,0.35261113,196.7311,02/17.0/2020,2000,g  7.0,8.0
# From MPEC 2016-U66
78P/Gehrels,e,6.2485,210.5401,192.6696,3.740483,0.1362425,0.46168968,43.6437,02/17.0/2020,2000,g  9.0,4.0
# From MPC 94675
79P/du Toit-Hartley,e,3.1480,280.5262,281.8245,2.942757,0.1952416,0.61909178,101.8672,02/17.0/2020,2000,g 16.0,4.0
# From MPEC 2014-P41
80P/Peters-Hartley,e,29.9462,259.8222,339.2487,4.024318,0.1220859,0.59920180,234.8194,02/17.0/2020,2000,g  9.0,4.0
# From MPC105241
81P/Wild,e,3.2371,136.1082,41.7222,3.449970,0.1538087,0.53731871,201.1460,02/17.0/2020,2000,g  7.0,6.0
# From MPC 75717
82P/Gehrels,e,1.1284,239.3134,226.9615,4.137803,0.1170979,0.12185701,70.2606,02/17.0/2020,2000,g  5.0,8.0
# From MPC105241
84P/Giclas,e,7.5523,108.1750,281.5580,3.547400,0.1475159,0.51545773,344.0971,02/17.0/2020,2000,g  9.5,8.0
# From MPC109147
86P/Wild,e,15.4758,72.3772,179.2974,3.604445,0.1440279,0.37264819,256.1214,02/17.0/2020,2000,g 11.0,6.0
# From MPC105241
87P/Bus,e,2.6023,181.8619,24.9240,3.437854,0.1546226,0.38919627,347.2848,02/17.0/2020,2000,g  7.2,10.0
# From MPEC 2019-JE2
88P/Howell,e,4.3838,56.6856,235.9159,3.105289,0.1801155,0.56424798,319.9003,02/17.0/2020,2000,g 11.0,6.0
# From MPC100283
89P/Russell,e,12.0717,41.4225,250.2484,3.753938,0.1355107,0.40865942,156.9938,02/17.0/2020,2000,g 11.5,6.0
# From MPC107051
90P/Gehrels,e,9.6391,13.2190,29.1361,6.056804,0.0661209,0.50949827,64.3484,02/17.0/2020,2000,g  8.5,6.0
# From MPC105241
91P/Russell,e,14.0916,247.8286,354.7674,3.890651,0.1284312,0.33059081,325.8028,02/17.0/2020,2000,g  7.5,6.0
# From MPEC 2014-J58
92P/Sanguin,e,19.4722,181.3966,163.7067,5.346137,0.0797341,0.66027193,144.5347,02/17.0/2020,2000,g 12.0,6.0
# From NK 2707
